{
  "type": "FeatureCollection",
  "features": [
    {
      "type": "Feature",
      "properties": {
        "norad_id": 37836,
        "name": "EUTELSAT 16A",
        "group": "eutelsat",
        "lat": -0.052598811636812313,
        "lon": -64.22889513727671,
        "alt_km": 35765.417633941564,
        "timestamp": "2025-12-02T13:52:16.946767+00:00",
        "meta_object_name": "EUTELSAT 16A",
        "meta_object_id": "2011-057A",
        "meta_epoch": "2025-12-02T05:17:58.791840",
        "meta_mean_motion": 1.00273337,
        "meta_eccentricity": 0.00060587,
        "meta_inclination": 0.0596,
        "meta_ra_of_asc_node": 344.5784,
        "meta_arg_of_pericenter": 273.2003,
        "meta_mean_anomaly": 269.0478,
        "meta_ephemeris_type": 0,
        "meta_classification_type": "U",
        "meta_norad_cat_id": 37836,
        "meta_element_set_no": 999,
        "meta_rev_at_epoch": 535,
        "meta_bstar": 0,
        "meta_mean_motion_dot": 1.25e-06,
        "meta_mean_motion_ddot": 0,
        "tle_line1": "1 37836U 11057A   25336.22081935  .00000125  00000+0  00000+0 0  9996",
        "tle_line2": "2 37836   0.0596 344.5784 0006058 273.2003 269.0478  1.00273337  5355"
      },
      "geometry": {
        "type": "Point",
        "coordinates": [
          -64.22889513727671,
          -0.052598811636812313
        ]
      }
    },
    {
      "type": "Feature",
      "properties": {
        "norad_id": 38992,
        "name": "EUTELSAT 21B",
        "group": "eutelsat",
        "lat": -0.05155292285519059,
        "lon": -58.651333584508784,
        "alt_km": 35774.5744759564,
        "timestamp": "2025-12-02T13:52:16.946779+00:00",
        "meta_object_name": "EUTELSAT 21B",
        "meta_object_id": "2012-062B",
        "meta_epoch": "2025-12-02T05:19:36.136128",
        "meta_mean_motion": 1.00272845,
        "meta_eccentricity": 0.0003313,
        "meta_inclination": 0.0687,
        "meta_ra_of_asc_node": 343.3924,
        "meta_arg_of_pericenter": 280.9412,
        "meta_mean_anomaly": 268.4978,
        "meta_ephemeris_type": 0,
        "meta_classification_type": "U",
        "meta_norad_cat_id": 38992,
        "meta_element_set_no": 999,
        "meta_rev_at_epoch": 4785,
        "meta_bstar": 0,
        "meta_mean_motion_dot": 1.51e-06,
        "meta_mean_motion_ddot": 0,
        "tle_line1": "1 38992U 12062B   25336.22194602  .00000151  00000+0  00000+0 0  9992",
        "tle_line2": "2 38992   0.0687 343.3924 0003313 280.9412 268.4978  1.00272845 47855"
      },
      "geometry": {
        "type": "Point",
        "coordinates": [
          -58.651333584508784,
          -0.05155292285519059
        ]
      }
    },
    {
      "type": "Feature",
      "properties": {
        "norad_id": 39020,
        "name": "EUTELSAT 70B",
        "group": "eutelsat",
        "lat": 0.00315835350607965,
        "lon": -9.733815153203835,
        "alt_km": 35792.22237574554,
        "timestamp": "2025-12-02T13:52:16.946791+00:00",
        "meta_object_name": "EUTELSAT 70B",
        "meta_object_id": "2012-069A",
        "meta_epoch": "2025-12-02T02:08:07.509120",
        "meta_mean_motion": 1.00271506,
        "meta_eccentricity": 0.00043539,
        "meta_inclination": 0.0627,
        "meta_ra_of_asc_node": 358.6341,
        "meta_arg_of_pericenter": 242.3226,
        "meta_mean_anomaly": 292.7694,
        "meta_ephemeris_type": 0,
        "meta_classification_type": "U",
        "meta_norad_cat_id": 39020,
        "meta_element_set_no": 999,
        "meta_rev_at_epoch": 4753,
        "meta_bstar": 0,
        "meta_mean_motion_dot": -2.3e-07,
        "meta_mean_motion_ddot": 0,
        "tle_line1": "1 39020U 12069A   25336.08897580 -.00000023  00000+0  00000+0 0  9990",
        "tle_line2": "2 39020   0.0627 358.6341 0004353 242.3226 292.7694  1.00271506 47537"
      },
      "geometry": {
        "type": "Point",
        "coordinates": [
          -9.733815153203835,
          0.00315835350607965
        ]
      }
    },
    {
      "type": "Feature",
      "properties": {
        "norad_id": 39122,
        "name": "EUTELSAT 117 WEST A",
        "group": "eutelsat",
        "lat": 0.013289073766921837,
        "lon": 162.8962310537965,
        "alt_km": 35785.7654964253,
        "timestamp": "2025-12-02T13:52:16.946803+00:00",
        "meta_object_name": "EUTELSAT 117 WEST A",
        "meta_object_id": "2013-012A",
        "meta_epoch": "2025-12-02T04:40:09.913152",
        "meta_mean_motion": 1.00271774,
        "meta_eccentricity": 0.00030963,
        "meta_inclination": 0.034,
        "meta_ra_of_asc_node": 51.4389,
        "meta_arg_of_pericenter": 200.1856,
        "meta_mean_anomaly": 132.9281,
        "meta_ephemeris_type": 0,
        "meta_classification_type": "U",
        "meta_norad_cat_id": 39122,
        "meta_element_set_no": 999,
        "meta_rev_at_epoch": 4645,
        "meta_bstar": 0,
        "meta_mean_motion_dot": 8e-08,
        "meta_mean_motion_ddot": 0,
        "tle_line1": "1 39122U 13012A   25336.19455918  .00000008  00000+0  00000+0 0  9991",
        "tle_line2": "2 39122   0.0340  51.4389 0003096 200.1856 132.9281  1.00271774 46450"
      },
      "geometry": {
        "type": "Point",
        "coordinates": [
          162.8962310537965,
          0.013289073766921837
        ]
      }
    },
    {
      "type": "Feature",
      "properties": {
        "norad_id": 39163,
        "name": "EUTELSAT 7B",
        "group": "eutelsat",
        "lat": -0.07380140472444771,
        "lon": -73.28625498189047,
        "alt_km": 35769.53215201926,
        "timestamp": "2025-12-02T13:52:16.946815+00:00",
        "meta_object_name": "EUTELSAT 7B",
        "meta_object_id": "2013-022A",
        "meta_epoch": "2025-12-02T05:15:29.031264",
        "meta_mean_motion": 1.00272279,
        "meta_eccentricity": 0.00042898,
        "meta_inclination": 0.0677,
        "meta_ra_of_asc_node": 356.8609,
        "meta_arg_of_pericenter": 314.5613,
        "meta_mean_anomaly": 205.7859,
        "meta_ephemeris_type": 0,
        "meta_classification_type": "U",
        "meta_norad_cat_id": 39163,
        "meta_element_set_no": 999,
        "meta_rev_at_epoch": 4598,
        "meta_bstar": 0,
        "meta_mean_motion_dot": 6.9e-07,
        "meta_mean_motion_ddot": 0,
        "tle_line1": "1 39163U 13022A   25336.21908601  .00000069  00000+0  00000+0 0  9999",
        "tle_line2": "2 39163   0.0677 356.8609 0004289 314.5613 205.7859  1.00272279 45989"
      },
      "geometry": {
        "type": "Point",
        "coordinates": [
          -73.28625498189047,
          -0.07380140472444771
        ]
      }
    },
    {
      "type": "Feature",
      "properties": {
        "norad_id": 39612,
        "name": "EXPRESS-AT1",
        "group": "eutelsat",
        "lat": 0.022527257043178237,
        "lon": -24.26848342454163,
        "alt_km": 35788.31593820961,
        "timestamp": "2025-12-02T13:52:16.946827+00:00",
        "meta_object_name": "EXPRESS-AT1",
        "meta_object_id": "2014-010A",
        "meta_epoch": "2025-12-02T03:46:40.765728",
        "meta_mean_motion": 1.0026954,
        "meta_eccentricity": 3.956e-05,
        "meta_inclination": 0.0131,
        "meta_ra_of_asc_node": 275.0216,
        "meta_arg_of_pericenter": 233.472,
        "meta_mean_anomaly": 35.4546,
        "meta_ephemeris_type": 0,
        "meta_classification_type": "U",
        "meta_norad_cat_id": 39612,
        "meta_element_set_no": 999,
        "meta_rev_at_epoch": 4284,
        "meta_bstar": 0,
        "meta_mean_motion_dot": 1e-06,
        "meta_mean_motion_ddot": 0,
        "tle_line1": "1 39612U 14010A   25336.15741627  .00000100  00000+0  00000+0 0  9998",
        "tle_line2": "2 39612   0.0131 275.0216 0000395 233.4720  35.4546  1.00269540 42841"
      },
      "geometry": {
        "type": "Point",
        "coordinates": [
          -24.26848342454163,
          0.022527257043178237
        ]
      }
    },
    {
      "type": "Feature",
      "properties": {
        "norad_id": 39613,
        "name": "EXPRESS-AT2",
        "group": "eutelsat",
        "lat": 0.03724155820011991,
        "lon": 59.598372222376106,
        "alt_km": 35789.38420287958,
        "timestamp": "2025-12-02T13:52:16.946838+00:00",
        "meta_object_name": "EXPRESS-AT2",
        "meta_object_id": "2014-010B",
        "meta_epoch": "2025-12-02T07:36:08.057952",
        "meta_mean_motion": 1.00272328,
        "meta_eccentricity": 0.00012165,
        "meta_inclination": 0.0169,
        "meta_ra_of_asc_node": 302.6529,
        "meta_arg_of_pericenter": 345.266,
        "meta_mean_anomaly": 37.4023,
        "meta_ephemeris_type": 0,
        "meta_classification_type": "U",
        "meta_norad_cat_id": 39613,
        "meta_element_set_no": 999,
        "meta_rev_at_epoch": 4252,
        "meta_bstar": 0,
        "meta_mean_motion_dot": -2.6e-06,
        "meta_mean_motion_ddot": 0,
        "tle_line1": "1 39613U 14010B   25336.31675993 -.00000260  00000+0  00000+0 0  9997",
        "tle_line2": "2 39613   0.0169 302.6529 0001216 345.2660  37.4023  1.00272328 42520"
      },
      "geometry": {
        "type": "Point",
        "coordinates": [
          59.598372222376106,
          0.03724155820011991
        ]
      }
    }
  ]
}